[{"OBJECT_NAME":"STARLINK-31818","OBJECT_ID":"2024-090M","EPOCH":"2025-09-18T23:00:48.436416","MEAN_MOTION":15.27585277,"ECCENTRICITY":0.00013222,"INCLINATION":43.0029,"RA_OF_ASC_NODE":73.5484,"ARG_OF_PERICENTER":274.5631,"MEAN_ANOMALY":85.507,"EPHEMERIS_TYPE":0,"CLASSIFICATION_TYPE":"U","NORAD_CAT_ID":59741,"ELEMENT_SET_NO":999,"REV_AT_EPOCH":7717,"BSTAR":4.9296087e-5,"MEAN_MOTION_DOT":1.095e-5,"MEAN_MOTION_DDOT":0},{"OBJECT_NAME":"STARLINK-31816","OBJECT_ID":"2024-090N","EPOCH":"2025-09-19T04:03:38.163744","MEAN_MOTION":15.27573688,"ECCENTRICITY":0.00011428,"INCLINATION":43.0018,"RA_OF_ASC_NODE":72.5301,"ARG_OF_PERICENTER":271.7172,"MEAN_ANOMALY":88.3549,"EPHEMERIS_TYPE":0,"CLASSIFICATION_TYPE":"U","NORAD_CAT_ID":59742,"ELEMENT_SET_NO":999,"REV_AT_EPOCH":7718,"BSTAR":-1.0067585e-5,"MEAN_MOTION_DOT":-5.39e-6,"MEAN_MOTION_DDOT":0},{"OBJECT_NAME":"STARLINK-31809","OBJECT_ID":"2024-090P","EPOCH":"2025-09-18T11:29:50.303616","MEAN_MOTION":15.27574172,"ECCENTRICITY":0.00016454,"INCLINATION":43.0036,"RA_OF_ASC_NODE":69.0495,"ARG_OF_PERICENTER":271.3015,"MEAN_ANOMALY":88.7648,"EPHEMERIS_TYPE":0,"CLASSIFICATION_TYPE":"U","NORAD_CAT_ID":59743,"ELEMENT_SET_NO":999,"REV_AT_EPOCH":7718,"BSTAR":2.2918725e-5,"MEAN_MOTION_DOT":3.68e-6,"MEAN_MOTION_DDOT":0},{"OBJECT_NAME":"STARLINK-31779","OBJECT_ID":"2024-090Q","EPOCH":"2025-09-19T04:31:10.962912","MEAN_MOTION":15.27574794,"ECCENTRICITY":9.574e-5,"INCLINATION":43.0053,"RA_OF_ASC_NODE":71.836,"ARG_OF_PERICENTER":279.4494,"MEAN_ANOMALY":80.625,"EPHEMERIS_TYPE":0,"CLASSIFICATION_TYPE":"U","NORAD_CAT_ID":59744,"ELEMENT_SET_NO":999,"REV_AT_EPOCH":7721,"BSTAR":-1.5841422e-5,"MEAN_MOTION_DOT":-6.98e-6,"MEAN_MOTION_DDOT":0},{"OBJECT_NAME":"STARLINK-31805","OBJECT_ID":"2024-090R","EPOCH":"2025-09-19T04:14:31.708896","MEAN_MOTION":15.27583342,"ECCENTRICITY":9.026e-5,"INCLINATION":43.0029,"RA_OF_ASC_NODE":71.7484,"ARG_OF_PERICENTER":317.2806,"MEAN_ANOMALY":42.7976,"EPHEMERIS_TYPE":0,"CLASSIFICATION_TYPE":"U","NORAD_CAT_ID":59745,"ELEMENT_SET_NO":999,"REV_AT_EPOCH":7721,"BSTAR":4.9136755e-5,"MEAN_MOTION_DOT":1.09e-5,"MEAN_MOTION_DDOT":0},{"OBJECT_NAME":"STARLINK-31681","OBJECT_ID":"2024-090S","EPOCH":"2025-09-18T11:35:21.636384","MEAN_MOTION":15.27579517,"ECCENTRICITY":7.061e-5,"INCLINATION":42.9993,"RA_OF_ASC_NODE":69.0772,"ARG_OF_PERICENTER":271.0686,"MEAN_ANOMALY":89.0085,"EPHEMERIS_TYPE":0,"CLASSIFICATION_TYPE":"U","NORAD_CAT_ID":59746,"ELEMENT_SET_NO":999,"REV_AT_EPOCH":7718,"BSTAR":4.8526419e-5,"MEAN_MOTION_DOT":1.074e-5,"MEAN_MOTION_DDOT":0},{"OBJECT_NAME":"STARLINK-31636","OBJECT_ID":"2024-090T","EPOCH":"2025-09-19T04:34:50.914848","MEAN_MOTION":15.27598888,"ECCENTRICITY":0.00015513,"INCLINATION":43.0045,"RA_OF_ASC_NODE":71.8552,"ARG_OF_PERICENTER":289.2301,"MEAN_ANOMALY":70.8383,"EPHEMERIS_TYPE":0,"CLASSIFICATION_TYPE":"U","NORAD_CAT_ID":59747,"ELEMENT_SET_NO":999,"REV_AT_EPOCH":7721,"BSTAR":0.00010119467,"MEAN_MOTION_DOT":2.525e-5,"MEAN_MOTION_DDOT":0},{"OBJECT_NAME":"STARLINK-31640","OBJECT_ID":"2024-090U","EPOCH":"2025-09-18T22:42:18.616320","MEAN_MOTION":15.27566992,"ECCENTRICITY":0.00013232,"INCLINATION":43.0026,"RA_OF_ASC_NODE":73.4534,"ARG_OF_PERICENTER":302.3795,"MEAN_ANOMALY":57.6929,"EPHEMERIS_TYPE":0,"CLASSIFICATION_TYPE":"U","NORAD_CAT_ID":59748,"ELEMENT_SET_NO":999,"REV_AT_EPOCH":7717,"BSTAR":0.00022038907,"MEAN_MOTION_DOT":5.805e-5,"MEAN_MOTION_DDOT":0},{"OBJECT_NAME":"STARLINK-31677","OBJECT_ID":"2024-090V","EPOCH":"2025-09-19T03:48:49.978656","MEAN_MOTION":15.27583091,"ECCENTRICITY":0.00013427,"INCLINATION":43.0015,"RA_OF_ASC_NODE":72.4716,"ARG_OF_PERICENTER":276.0697,"MEAN_ANOMALY":84.0002,"EPHEMERIS_TYPE":0,"CLASSIFICATION_TYPE":"U","NORAD_CAT_ID":59749,"ELEMENT_SET_NO":999,"REV_AT_EPOCH":7719,"BSTAR":6.5898619e-5,"MEAN_MOTION_DOT":1.552e-5,"MEAN_MOTION_DDOT":0},{"OBJECT_NAME":"STARLINK-31783","OBJECT_ID":"2024-090W","EPOCH":"2025-09-19T03:59:56.298912","MEAN_MOTION":15.27579893,"ECCENTRICITY":0.00011954,"INCLINATION":43.0011,"RA_OF_ASC_NODE":72.5328,"ARG_OF_PERICENTER":286.6976,"MEAN_ANOMALY":73.3744,"EPHEMERIS_TYPE":0,"CLASSIFICATION_TYPE":"U","NORAD_CAT_ID":59750,"ELEMENT_SET_NO":999,"REV_AT_EPOCH":7719,"BSTAR":0.00061325661,"MEAN_MOTION_DOT":0.00016651,"MEAN_MOTION_DDOT":0},{"OBJECT_NAME":"STARLINK-31808","OBJECT_ID":"2024-090X","EPOCH":"2025-09-19T04:08:58.986816","MEAN_MOTION":15.27577131,"ECCENTRICITY":9.646e-5,"INCLINATION":43.0043,"RA_OF_ASC_NODE":71.7213,"ARG_OF_PERICENTER":286.5503,"MEAN_ANOMALY":73.5243,"EPHEMERIS_TYPE":0,"CLASSIFICATION_TYPE":"U","NORAD_CAT_ID":59751,"ELEMENT_SET_NO":999,"REV_AT_EPOCH":7720,"BSTAR":1.2940805e-5,"MEAN_MOTION_DOT":9.4e-7,"MEAN_MOTION_DDOT":0},{"OBJECT_NAME":"STARLINK-31822","OBJECT_ID":"2024-090Y","EPOCH":"2025-09-19T04:40:26.094144","MEAN_MOTION":15.27578605,"ECCENTRICITY":0.00012294,"INCLINATION":43.0019,"RA_OF_ASC_NODE":71.8843,"ARG_OF_PERICENTER":289.3689,"MEAN_ANOMALY":70.703,"EPHEMERIS_TYPE":0,"CLASSIFICATION_TYPE":"U","NORAD_CAT_ID":59752,"ELEMENT_SET_NO":999,"REV_AT_EPOCH":7720,"BSTAR":1.7245428e-5,"MEAN_MOTION_DOT":2.12e-6,"MEAN_MOTION_DDOT":0},{"OBJECT_NAME":"STARLINK-11118 [DTC]","OBJECT_ID":"2024-091B","EPOCH":"2025-09-19T04:40:56.866368","MEAN_MOTION":15.69715315,"ECCENTRICITY":0.00012404,"INCLINATION":53.1575,"RA_OF_ASC_NODE":332.0058,"ARG_OF_PERICENTER":87.0625,"MEAN_ANOMALY":273.0534,"EPHEMERIS_TYPE":0,"CLASSIFICATION_TYPE":"U","NORAD_CAT_ID":59754,"ELEMENT_SET_NO":999,"REV_AT_EPOCH":7857,"BSTAR":2.3386649e-5,"MEAN_MOTION_DOT":2.246e-5,"MEAN_MOTION_DDOT":0},{"OBJECT_NAME":"STARLINK-11132 [DTC]","OBJECT_ID":"2024-091C","EPOCH":"2025-09-19T04:26:49.322112","MEAN_MOTION":15.69717154,"ECCENTRICITY":7.034e-5,"INCLINATION":53.1571,"RA_OF_ASC_NODE":331.9378,"ARG_OF_PERICENTER":91.9705,"MEAN_ANOMALY":268.1393,"EPHEMERIS_TYPE":0,"CLASSIFICATION_TYPE":"U","NORAD_CAT_ID":59755,"ELEMENT_SET_NO":999,"REV_AT_EPOCH":7857,"BSTAR":-8.560982e-6,"MEAN_MOTION_DOT":-1.625e-5,"MEAN_MOTION_DDOT":0},{"OBJECT_NAME":"STARLINK-11131 [DTC]","OBJECT_ID":"2024-091D","EPOCH":"2025-09-18T11:31:14.846880","MEAN_MOTION":15.69665248,"ECCENTRICITY":0.0001199,"INCLINATION":53.1582,"RA_OF_ASC_NODE":335.3608,"ARG_OF_PERICENTER":83.5175,"MEAN_ANOMALY":276.598,"EPHEMERIS_TYPE":0,"CLASSIFICATION_TYPE":"U","NORAD_CAT_ID":59756,"ELEMENT_SET_NO":999,"REV_AT_EPOCH":7846,"BSTAR":9.5687705e-5,"MEAN_MOTION_DOT":0.00010998,"MEAN_MOTION_DDOT":0},{"OBJECT_NAME":"STARLINK-11114 [DTC]","OBJECT_ID":"2024-091E","EPOCH":"2025-09-18T11:24:11.646720","MEAN_MOTION":15.69663392,"ECCENTRICITY":0.00019068,"INCLINATION":53.1589,"RA_OF_ASC_NODE":335.3524,"ARG_OF_PERICENTER":52.2876,"MEAN_ANOMALY":307.8315,"EPHEMERIS_TYPE":0,"CLASSIFICATION_TYPE":"U","NORAD_CAT_ID":59757,"ELEMENT_SET_NO":999,"REV_AT_EPOCH":7846,"BSTAR":9.3049083e-5,"MEAN_MOTION_DOT":0.00010677,"MEAN_MOTION_DDOT":0}]
