STARLINK-31818          
1 59741U 24090M   25261.95889394  .00001095  00000+0  49296-4 0  9990
2 59741  43.0029  73.5484 0001322 274.5631  85.5070 15.27585277 77179
STARLINK-31816          
1 59742U 24090N   25262.16919171 -.00000539  00000+0 -10068-4 0  9991
2 59742  43.0018  72.5301 0001142 271.7172  88.3549 15.27573688 77180
STARLINK-31809          
1 59743U 24090P   25261.47905444  .00000368  00000+0  22919-4 0  9999
2 59743  43.0036  69.0495 0001645 271.3015  88.7648 15.27574172 77189
STARLINK-31779          
1 59744U 24090Q   25262.18832133 -.00000698  00000+0 -15841-4 0  9997
2 59744  43.0053  71.8360 0000957 279.4494  80.6250 15.27574794 77210
STARLINK-31805          
1 59745U 24090R   25262.17675589  .00001090  00000+0  49137-4 0  9997
2 59745  43.0029  71.7484 0000902 317.2806  42.7976 15.27583342 77211
STARLINK-31681          
1 59746U 24090S   25261.48288931  .00001074  00000+0  48526-4 0  9995
2 59746  42.9993  69.0772 0000706 271.0686  89.0085 15.27579517 77185
STARLINK-31636          
1 59747U 24090T   25262.19086707  .00002525  00000+0  10119-3 0  9990
2 59747  43.0045  71.8552 0001551 289.2301  70.8383 15.27598888 77212
STARLINK-31640          
1 59748U 24090U   25261.94604880  .00005805  00000+0  22039-3 0  9999
2 59748  43.0026  73.4534 0001323 302.3795  57.6929 15.27566992 77176
STARLINK-31677          
1 59749U 24090V   25262.15891179  .00001552  00000+0  65899-4 0  9990
2 59749  43.0015  72.4716 0001342 276.0697  84.0002 15.27583091 77192
STARLINK-31783          
1 59750U 24090W   25262.16662383  .00016651  00000+0  61326-3 0  9992
2 59750  43.0011  72.5328 0001195 286.6976  73.3744 15.27579893 77192
STARLINK-31808          
1 59751U 24090X   25262.17290494  .00000094  00000+0  12941-4 0  9998
2 59751  43.0043  71.7213 0000964 286.5503  73.5243 15.27577131 77201
STARLINK-31822          
1 59752U 24090Y   25262.19474646  .00000212  00000+0  17245-4 0  9998
2 59752  43.0019  71.8843 0001229 289.3689  70.7030 15.27578605 77206
STARLINK-11118 [DTC]    
1 59754U 24091B   25262.19510262  .00002246  00000+0  23387-4 0  9999
2 59754  53.1575 332.0058 0001240  87.0625 273.0534 15.69715315 78578
STARLINK-11132 [DTC]    
1 59755U 24091C   25262.18529308 -.00001625  00000+0 -85610-5 0  9990
2 59755  53.1571 331.9378 0000703  91.9705 268.1393 15.69717154 78575
STARLINK-11131 [DTC]    
1 59756U 24091D   25261.48003295  .00010998  00000+0  95688-4 0  9991
2 59756  53.1582 335.3608 0001199  83.5175 276.5980 15.69665248 78469
STARLINK-11114 [DTC]    
1 59757U 24091E   25261.47513480  .00010677  00000+0  93049-4 0  9996
2 59757  53.1589 335.3524 0001906  52.2876 307.8315 15.69663392 78469
